KEPLER-18 (BLIP-A)      
1 51002U 22002U   24165.17515320  .00111147  00000+0  14475-2 0  9993
2 51002  97.3824 239.8454 0000618  80.6665 279.4661 15.58364189134333
FLOCK 4X-22             
1 51003U 22002V   24165.17867748  .00032057  00000+0  60239-3 0  9990
2 51003  97.3918 241.6248 0004029  47.5081 312.6509 15.48522259134428
FLOCK 4X-5              
1 51004U 22002W   24165.45631164  .00040252  00000+0  69654-3 0  9999
2 51004  97.3851 241.3318 0001658  13.1636 346.9658 15.50834626134455
FLOCK 4X-41             
1 51005U 22002X   24165.16266813  .00039002  00000+0  74714-3 0  9997
2 51005  97.3862 240.8185 0003557  13.2300 346.9043 15.47928983134402
FLOCK 4X-3              
1 51006U 22002Y   24165.57248469  .00033089  00000+0  63375-3 0  9990
2 51006  97.3928 242.0265 0003552  23.2602 336.8809 15.47968616134472
FLOCK 4X-18             
1 51007U 22002Z   24165.58195376  .00044500  00000+0  80079-3 0  9990
2 51007  97.3834 241.7233 0004257   7.8352 352.2965 15.49693166134497
ICEYE-X16               
1 51008U 22002AA  24165.56709163  .00079514  00000+0  12143-2 0  9993
2 51008  97.3887 239.2881 0000604  26.4006 333.7278 15.54156015134317
FLOCK 4X-37             
1 51009U 22002AB  24165.48723831  .00038626  00000+0  68962-3 0  9993
2 51009  97.3921 242.2062 0005801  32.6304 327.5304 15.49939711134470
FLOCK 4X-29             
1 51011U 22002AD  24165.47825968  .00037979  00000+0  68580-3 0  9995
2 51011  97.3932 241.8033 0002426  23.4533 336.6829 15.49635028134477
TEVEL-1                 
1 51013U 22002AF  24165.58525486  .00155793  00000+0  14406-2 0  9993
2 51013  97.3749 241.1288 0002804 245.5276 114.5692 15.67048084134483
FLOCK 4X-12             
1 51015U 22002AH  24165.49108055  .00031638  00000+0  61583-3 0  9994
2 51015  97.3895 241.5898 0004684  25.9805 334.1680 15.47504889134445
FLOCK 4X-25             
1 51016U 22002AJ  24165.47626744  .00051605  00000+0  84545-3 0  9992
2 51016  97.3795 242.3420 0003942  35.1063 325.0448 15.52312340134514
FLOCK 4X-1              
1 51017U 22002AK  24165.57039331  .00030326  00000+0  58424-3 0  9998
2 51017  97.3864 241.3856 0004418  29.3661 330.7836 15.47812544134465
FLOCK 4X-42             
1 51018U 22002AL  24165.57786176  .00108215  00000+0  16053-2 0  9999
2 51018  97.3812 241.4488 0002318 297.6269  62.4750 15.54845859134481
FLOCK 4X-16             
1 51020U 22002AN  24165.47185619  .00035468  00000+0  67447-3 0  9999
2 51020  97.3885 241.3077 0004669  13.8542 346.2835 15.48155644134453
FLOCK 4X-38             
1 51023U 22002AR  24165.47193077  .00043460  00000+0  80049-3 0  9993
2 51023  97.3900 241.8408 0003647  27.5172 332.6271 15.49035448134456
FLOCK 4X-32             
1 51024U 22002AS  24165.25566043  .00025340  00000+0  49316-3 0  9996
2 51024  97.3937 241.4943 0004038  18.0616 342.0777 15.47556431134409
FLOCK 4X-26             
1 51026U 22002AU  24165.58471256  .00034815  00000+0  67055-3 0  9992
2 51026  97.3893 241.5954 0004385  24.5209 335.6249 15.47792893134473
FLOCK 4X-43             
1 51027U 22002AV  24165.48230757  .00033063  00000+0  63552-3 0  9993
2 51027  97.3862 241.3208 0003843  25.1949 334.9488 15.47863986134453
FLOCK 4X-13             
1 51028U 22002AW  24165.58269054  .00032088  00000+0  60595-3 0  9997
2 51028  97.3878 241.5190 0005357  10.0469 350.0888 15.48374041134470
FLOCK 4X-39             
1 51029U 22002AX  24165.47578702  .00037490  00000+0  69558-3 0  9999
2 51029  97.3855 241.4747 0004261   0.0528   0.0722 15.48855093134460
SICH-2-30 (SICH-2-1)    
1 51030U 22002AY  24165.59801697  .00015407  00000+0  54110-3 0  9998
2 51030  97.3885 231.9500 0007664  60.7198 299.4807 15.29459292133830
FLOCK 4X-17             
1 51035U 22002BD  24165.18078010  .00033346  00000+0  65041-3 0  9990
2 51035  97.3928 241.3046 0002810  49.7766 310.3729 15.47442093134398
LEMUR-2-ROHOVITHSA      
1 51036U 22002BE  24165.18098339  .00167087  00000+0  16304-2 0  9994
2 51036  97.3855 240.9941 0001841 201.8770 158.2411 15.65667470134379
FLOCK 4X-10             
1 51037U 22002BF  24165.46257409  .00049026  00000+0  86410-3 0  9999
2 51037  97.3918 242.1307 0002204  16.3118 343.8204 15.50269276134467
MDASAT-1C               
1 51038U 22002BG  24165.23230214  .00020326  00000+0  64708-3 0  9998
2 51038  97.3944 233.3049 0007134  68.1957 292.0043 15.32581448133851
FLOCK 4X-36             
1 51039U 22002BH  24165.47813035  .00037369  00000+0  70342-3 0  9999
2 51039  97.3898 241.8470 0003361  14.6778 345.4570 15.48444042134457
FLOCK 4X-31             
1 51041U 22002BK  24165.18156612  .00050555  00000+0  86358-3 0  9997
2 51041  97.3823 241.2654 0001438  49.0367 311.1009 15.51149847134439
FLOCK 4X-34             
1 51042U 22002BL  24165.45698166  .00047439  00000+0  87211-3 0  9999
2 51042  97.3940 241.8488 0001598  36.4485 323.6874 15.49075519134449
FLOCK 4X-6              
1 51043U 22002BM  24165.58609240  .00033375  00000+0  64147-3 0  9996
2 51043  97.3909 241.7396 0003012  24.2518 335.8874 15.47867237134468
IRIS-A                  
1 51044U 22002BN  24165.46099609  .00019185  00000+0  63231-3 0  9992
2 51044  97.3844 231.9822 0006516  59.7205 300.4680 15.31481947133858
FLOCK 4X-9              
1 51047U 22002BR  24165.27092657  .00035853  00000+0  69137-3 0  9991
2 51047  97.3901 241.4895 0002549  29.1014 331.0377 15.47758925134418
FLOCK 4X-35             
1 51048U 22002BS  24165.15948886  .00035860  00000+0  68094-3 0  9992
2 51048  97.3805 240.6544 0002156  30.3432 329.7943 15.48204543134401
FLOCK 4X-11             
1 51049U 22002BT  24165.46764554  .00064173  00000+0  93421-3 0  9996
2 51049  97.3816 243.2938 0001747 333.3631  26.7533 15.55530672134594
MDASAT-1B               
1 51050U 22002BU  24165.46739729  .00026841  00000+0  79661-3 0  9994
2 51050  97.3920 233.6269 0006081  69.3911 290.7984 15.34761917133907
KEPLER-19               
1 51051U 22002BV  24165.43165332  .00016086  00000+0  58216-3 0  9998
2 51051  97.3893 230.4188 0007934  75.1911 285.0207 15.28464316133726
FLOCK 4X-40             
1 51052U 22002BW  24165.27151101  .00045767  00000+0  75098-3 0  9995
2 51052  97.3867 241.9303 0002691  19.8678 340.2679 15.52300143134489
HYPSO-1                 
1 51053U 22002BX  24165.59326703  .00010641  00000+0  42043-3 0  9990
2 51053  97.3827 229.6329 0007293  73.3791 286.8248 15.25658668133722
LEMUR-2-MIRIWARI        
1 51054U 22002BY  24165.48198587  .00461185  00000+0  17264-2 0  9995
2 51054  97.3741 243.1571 0009521 236.2172 123.8193 15.86735961134557
FLOCK 4X-24             
1 51056U 22002CA  24165.47108596  .00075268  00000+0  14194-2 0  9999
2 51056  97.3853 241.1133 0001657  53.0244 307.1158 15.48221046134440
KEPLER-16 (ASTRAEUS)    
1 51057U 22002CB  24165.45340010  .00016472  00000+0  53793-3 0  9998
2 51057  97.3910 234.3718 0006700  53.4197 306.7660 15.31810139133983
LEMUR-2-DJIRANG         
1 51058U 22002CC  24165.48439883  .00614191  00000+0  22138-2 0  9999
2 51058  97.3700 242.8761 0009797 243.0817 116.9454 15.87162999134559
KEPLER-17 (KARINA)      
1 51059U 22002CD  24165.59449906  .00080115  00000+0  13286-2 0  9996
2 51059  97.3877 238.8230 0005448  40.4670 319.6987 15.51844993134270
ETV-A1                  
1 51060U 22002CE  24165.57274404  .00007101  00000+0  31965-3 0  9994
2 51060  97.3903 228.3050 0009567  81.4176 278.8144 15.21346247133577
BRO-5                   
1 51061U 22002CF  24165.52525110  .00016158  00000+0  65832-3 0  9995
2 51061  97.3950 229.8196 0009009  86.1573 274.0694 15.24514102133647
TEVEL-7                 
1 51062U 22002CG  24165.58116822  .00160869  00000+0  14687-2 0  9998
2 51062  97.3767 241.3431 0002894 245.2395 114.8565 15.67348862134486
TEVEL-4                 
1 51063U 22002CH  24165.56302418  .00156240  00000+0  14670-2 0  9995
2 51063  97.3768 241.2071 0002652 246.5412 113.5570 15.66665665134476
FLOCK 4X-4              
1 51064U 22002CJ  24165.47026765  .00041349  00000+0  75617-3 0  9996
2 51064  97.3896 241.5574 0002576 349.7775  10.3423 15.49254505134461
FLOCK 4X-7              
1 51065U 22002CK  24165.17023462  .00035307  00000+0  67051-3 0  9995
2 51065  97.3877 241.2660 0003075  38.9172 321.2299 15.48201991134406
DEWASAT-1               
1 51067U 22002CM  24165.57259641  .00046988  00000+0  99008-3 0  9995
2 51067  97.3857 236.1492 0003384  77.4783 282.6844 15.45108700134127
TEVEL-2                 
1 51069U 22002CP  24165.55108110  .00160993  00000+0  14690-2 0  9995
2 51069  97.3749 241.2100 0002674 242.1017 117.9973 15.67363002134488
ICEYE-X14               
1 51070U 22002CQ  24165.52343658  .00013821  00000+0  65959-3 0  9994
2 51070  97.3943 232.3942 0009693 162.8735 197.2829 15.19137582133843
USA 320                 
1 51075U 22002CV  24165.36656996  .00009478  00000+0  20702-3 0  9993
2 51075  97.4022 228.5008 0000849 127.9350 232.1975 15.44413137133523
VZLUSAT-2               
1 51085U 22002DF  24165.60690140  .00014328  00000+0  53342-3 0  9996
2 51085  97.3874 230.2600 0011251  70.2858 289.9593 15.27527952133728
LABSAT                  
1 51086U 22002DG  24165.47178275  .00086994  00000+0  12510-2 0  9991
2 51086  97.3783 239.8809 0000387 219.2367 140.8859 15.55776991134396
TECHEDSAT 13            
1 51095U 22003B   24165.24546646  .00284035  00000+0  10853-2 0  9992
2 51095  44.9780 352.0944 0014491 264.0455  95.8798 15.85838254135550
GEARRS-3                
1 51097U 22003D   24165.54271709  .00142456  00000+0  92670-3 0  9990
2 51097  44.9389 354.6613 0012858 256.4672 103.4796 15.74692630135524
SHIYAN 13 (SY-13)       
1 51102U 22004A   24165.56617859  .00003913  00000+0  27479-3 0  9999
2 51102  98.5308 201.1263 0631978 166.5504 195.3432 14.13654536123359
STARLINK-3366           
1 51104U 22005A   24165.55708731  .00002721  00000+0  18898-3 0  9992
2 51104  53.2165 255.8574 0001286  98.6302 261.4836 15.08840888133148
STARLINK-3350           
1 51105U 22005B   24165.53132254  .00002865  00000+0  19800-3 0  9995
2 51105  53.2167 255.9701 0001315  95.7641 264.3501 15.08845600133149
